[{"OBJECT_NAME":"STARLINK-30964","OBJECT_ID":"2023-180A","EPOCH":"2026-03-09T22:00:01.999584","MEAN_MOTION":15.27534414,"ECCENTRICITY":0.00013254,"INCLINATION":43.0022,"RA_OF_ASC_NODE":51.2339,"ARG_OF_PERICENTER":303.6347,"MEAN_ANOMALY":322.2227,"EPHEMERIS_TYPE":0,"CLASSIFICATION_TYPE":"U","NORAD_CAT_ID":58402,"ELEMENT_SET_NO":999,"REV_AT_EPOCH":577,"BSTAR":0.0018406986,"MEAN_MOTION_DOT":0.00050668,"MEAN_MOTION_DDOT":0},{"OBJECT_NAME":"UHETSAT","OBJECT_ID":"2023-185E","EPOCH":"2026-03-09T22:39:26.455680","MEAN_MOTION":15.29797662,"ECCENTRICITY":0.00118435,"INCLINATION":97.3584,"RA_OF_ASC_NODE":137.3576,"ARG_OF_PERICENTER":307.7346,"MEAN_ANOMALY":52.2821,"EPHEMERIS_TYPE":0,"CLASSIFICATION_TYPE":"U","NORAD_CAT_ID":58466,"ELEMENT_SET_NO":999,"REV_AT_EPOCH":12611,"BSTAR":0.00030513019,"MEAN_MOTION_DOT":8.749e-5,"MEAN_MOTION_DDOT":0}]
